{
    "links": {
        "self": "http://www.neowsapp.com/rest/v1/neo/3723860?api_key=iIulBulltgU6a56xZRHN4H3l9WmuAYTsLGpBGhQ2"
    },
    "id": "3723860",
    "neo_reference_id": "3723860",
    "name": "(2015 MJ130)",
    "designation": "2015 MJ130",
    "nasa_jpl_url": "http://ssd.jpl.nasa.gov/sbdb.cgi?sstr=3723860",
    "absolute_magnitude_h": 22.6,
    "estimated_diameter": {
        "kilometers": {
            "estimated_diameter_min": 0.0802703167,
            "estimated_diameter_max": 0.1794898848
        },
        "meters": {
            "estimated_diameter_min": 80.2703167283,
            "estimated_diameter_max": 179.4898847799
        },
        "miles": {
            "estimated_diameter_min": 0.049877647,
            "estimated_diameter_max": 0.1115298092
        },
        "feet": {
            "estimated_diameter_min": 263.3540659348,
            "estimated_diameter_max": 588.8775935812
        }
    },
    "is_potentially_hazardous_asteroid": false,
    "close_approach_data": [
        {
            "close_approach_date": "1988-07-26",
            "close_approach_date_full": "1988-Jul-26 04:04",
            "epoch_date_close_approach": 585893040000,
            "relative_velocity": {
                "kilometers_per_second": "4.9494937872",
                "kilometers_per_hour": "17818.1776338487",
                "miles_per_hour": "11071.5226525434"
            },
            "miss_distance": {
                "astronomical": "0.2833620542",
                "lunar": "110.2278390838",
                "kilometers": "42390359.747144554",
                "miles": "26340148.1379766852"
            },
            "orbiting_body": "Earth"
        },
        {
            "close_approach_date": "2005-08-01",
            "close_approach_date_full": "2005-Aug-01 14:08",
            "epoch_date_close_approach": 1122905280000,
            "relative_velocity": {
                "kilometers_per_second": "7.1762719186",
                "kilometers_per_hour": "25834.5789068666",
                "miles_per_hour": "16052.6026546583"
            },
            "miss_distance": {
                "astronomical": "0.0902266239",
                "lunar": "35.0981566971",
                "kilometers": "13497710.752731093",
                "miles": "8387088.5472833634"
            },
            "orbiting_body": "Mars"
        },
        {
            "close_approach_date": "2015-08-01",
            "close_approach_date_full": "2015-Aug-01 23:41",
            "epoch_date_close_approach": 1438472460000,
            "relative_velocity": {
                "kilometers_per_second": "4.8480932638",
                "kilometers_per_hour": "17453.1357497586",
                "miles_per_hour": "10844.6998218431"
            },
            "miss_distance": {
                "astronomical": "0.2330523135",
                "lunar": "90.6573499515",
                "kilometers": "34864129.698172245",
                "miles": "21663565.641557181"
            },
            "orbiting_body": "Earth"
        },
        {
            "close_approach_date": "2042-08-12",
            "close_approach_date_full": "2042-Aug-12 15:01",
            "epoch_date_close_approach": 2291468460000,
            "relative_velocity": {
                "kilometers_per_second": "5.4169062011",
                "kilometers_per_hour": "19500.8623238856",
                "miles_per_hour": "12117.0774811944"
            },
            "miss_distance": {
                "astronomical": "0.3877359012",
                "lunar": "150.8292655668",
                "kilometers": "58004464.942050444",
                "miles": "36042303.2111823672"
            },
            "orbiting_body": "Earth"
        }
    ],
    "orbital_data": {
        "orbit_id": "15",
        "orbit_determination_date": "2017-04-06 08:32:53",
        "first_observation_date": "2015-06-22",
        "last_observation_date": "2015-08-19",
        "data_arc_in_days": 58,
        "observations_used": 46,
        "orbit_uncertainty": "5",
        "minimum_orbit_intersection": ".229271",
        "jupiter_tisserand_invariant": "3.482",
        "epoch_osculation": "2459000.5",
        "eccentricity": ".4465881210139585",
        "semi_major_axis": "2.247240267146403",
        "inclination": "7.269265230957233",
        "ascending_node_longitude": "125.6102256610146",
        "orbital_period": "1230.474701663973",
        "perihelion_distance": "1.243649458774585",
        "perihelion_argument": "184.27926430",
        "aphelion_distance": "3.250831075518222",
        "perihelion_time": "2458464.212116990728",
        "mean_anomaly": "156.9017531382464",
        "mean_motion": ".2925700134372298",
        "equinox": "J2000",
        "orbit_class": {
            "orbit_class_type": "AMO",
            "orbit_class_description": "Near-Earth asteroid orbits similar to that of 1221 Amor",
            "orbit_class_range": "1.017 AU < q (perihelion) < 1.3 AU"
        }
    },
    "is_sentry_object": false
}